36P/Whipple,e,9.9526,181.8413,201.0666,4.137639,0.1171049,0.26903441,124.0100,04/27.0/2023,2000,g  8.5,6.0
# From MPEC 2021-F20
37P/Forbes,e,8.9504,314.5657,330.0938,3.462048,0.1530046,0.53300037,278.4104,04/27.0/2023,2000,g 13.8,4.0
# From MPEC 2018-S50
38P/Stephan-Oterma,e,18.3950,77.8940,359.5110,11.24027,0.0261540,0.85951864,42.5503,04/27.0/2023,2000,g  3.5,12.0
# From MPEC 2022-A21
39P/Oterma,e,1.5444,296.5950,102.0695,7.250145,0.0504875,0.21276263,356.4266,04/27.0/2023,2000,g  7.0,6.0
# From MPC100283
40P/Vaisala,e,11.4606,133.5955,47.5293,4.956083,0.0893298,0.63130337,276.7183,04/27.0/2023,2000,g  5.5,12.0
# From MPC105240
41P/Tuttle-Giacobini-Kresak,e,9.2204,140.9883,62.2124,3.087955,0.1816342,0.65989204,40.9762,04/27.0/2023,2000,g 10.0,16.0
# From MPC 94283
42P/Neujmin,e,3.9907,150.1757,147.2188,4.874377,0.0915852,0.58449246,268.9899,04/27.0/2023,2000,g 13.0,6.0
# From MPEC 2022-C56
43P/Wolf-Harrington,e,9.3314,244.0195,224.0682,4.320968,0.1097318,0.43526574,268.6976,04/27.0/2023,2000,g  8.0,6.0
# From MPEC 2023-HD1
44P/Reinmuth,e,5.8970,286.4277,58.0322,3.688453,0.1391354,0.42735946,51.3418,04/27.0/2023,2000,g 13.5,4.0
# From MPEC 2022-O01
45P/Honda-Mrkos-Pajdusakova,e,4.3232,87.6878,327.9267,3.055894,0.1845001,0.81768278,67.3454,04/27.0/2023,2000,g 13.5,8.0
# From MPEC 2023-HD1
46P/Wirtanen,e,11.7493,82.1627,356.3270,3.091034,0.1813628,0.65869942,289.6056,04/27.0/2023,2000,g 14.4,4.0
# From MPEC 2023-HD1
47P/Ashbrook-Jackson,e,13.0397,356.9170,357.7710,4.121706,0.1177846,0.31868942,252.2974,04/27.0/2023,2000,g 12.5,4.0
# From MPEC 2023-FK0
48P/Johnson,e,12.2004,110.0874,216.7474,3.501094,0.1504521,0.42708552,258.3767,04/27.0/2023,2000,g 10.0,6.0
# From MPEC 2021-F20
49P/Arend-Rigaux,e,19.0538,118.7914,332.9225,3.569313,0.1461595,0.59864996,255.5249,04/27.0/2023,2000,g 13.4,4.0
# From MPEC 2015-S97
50P/Arend,e,19.1012,355.1728,49.3567,4.087348,0.1192729,0.52965210,314.4557,04/27.0/2023,2000,g  9.5,6.0
# From MPEC 2022-UE6
51P/Harrington,e,5.4265,83.6614,269.2493,3.706664,0.1381113,0.54339625,28.6909,04/27.0/2023,2000,g 10.0,8.0
# From NK 3014
51P-A/Harrington,e,5.4265,83.6615,269.2206,3.708336,0.1380179,0.54363464,28.3180,04/27.0/2023,2000,g 10.0,8.0
# From MPEC 2022-X67
51P-D/Harrington,e,5.4270,83.6499,269.2674,3.707027,0.1380910,0.54352649,28.6282,04/27.0/2023,2000,g 16.0,8.0
# From MPEC 2022-L66
52P/Harrington-Abell,e,10.2310,336.8234,139.5593,3.863644,0.1297802,0.54033885,73.8170,04/27.0/2023,2000,g 13.5,6.0
# From MPC100283
53P/Van Biesbroeck,e,6.6077,148.8254,134.4866,5.432891,0.0778319,0.55036938,198.8544,04/27.0/2023,2000,g  7.7,4.8
# From MPC 89011
54P/de Vico-Swift-NEAT,e,6.0641,358.8099,1.9042,3.788053,0.1336842,0.42645290,293.7244,04/27.0/2023,2000,g  9.0,4.0
# From MPC 31070
55P/Tempel-Tuttle,e,162.5076,235.4209,172.4746,10.35550,0.0295766,0.90528186,272.8416,04/27.0/2023,2000,g  9.0,4.0
# From MPC101100
56P/Slaughter-Burnham,e,8.1589,345.9748,44.0581,5.065706,0.0864458,0.50853997,213.3866,04/27.0/2023,2000,g  8.5,6.0
# From MPEC 2023-HD1
57P/duToit-Neujmin-Delporte,e,2.8524,188.7777,115.1348,3.443464,0.1542449,0.50083077,85.8917,04/27.0/2023,2000,g 13.7,4.0
# From MPEC 2021-O56
58P/Jackson-Neujmin,e,13.1049,159.0742,200.5481,4.088597,0.1192182,0.66265555,126.8715,04/27.0/2023,2000,g 15.5,6.0
# From MPEC 2023-A50
59P/Kearns-Kwee,e,9.3451,312.7833,127.5299,4.482882,0.1038408,0.47626254,174.6765,04/27.0/2023,2000,g  7.0,6.0
# From MPEC 2021-F20
60P/Tsuchinshan,e,3.5801,267.4375,216.9837,3.526236,0.1488459,0.53359325,238.5442,04/27.0/2023,2000,g 11.5,6.0
# From MPEC 2023-FK0
61P/Shajn-Schaldach,e,5.9995,162.9614,221.6390,3.688884,0.1391110,0.42373492,25.7721,04/27.0/2023,2000,g  6.0,10.0
# From MPC109147
62P/Tsuchinshan,e,4.7365,68.6713,47.3125,3.370286,0.1592956,0.62483807,321.4446,04/27.0/2023,2000,g  8.0,10.0
# From MPC 84320
63P/Wild,e,19.7142,358.0053,168.9470,5.616253,0.0740515,0.64999189,273.4823,04/27.0/2023,2000,g 10.5,6.0
# From MPEC 2023-A50
64P/Swift-Gehrels,e,8.9491,299.8927,97.1797,4.452550,0.1049037,0.68869816,171.3305,04/27.0/2023,2000,g  9.5,12.0
# From MPEC 2023-HD1
65P/Gunn,e,9.1757,61.9834,213.8541,3.889460,0.1284902,0.24835107,259.5093,04/27.0/2023,2000,g 11.5,4.0
# From MPEC 2021-F20
66P/duToit,e,18.6388,21.7787,257.4867,6.070536,0.0658967,0.78570963,118.9744,04/27.0/2023,2000,g 15.0,4.0
# From MPEC 2023-HD1
67P/Churyumov-Gerasimenko,e,3.8719,36.3291,22.1540,3.457485,0.1533076,0.64990748,82.9135,04/27.0/2023,2000,g 12.0,4.0
# From MPEC 2023-HD1
68P/Klemola,e,11.1108,175.0496,153.2543,4.959686,0.0892324,0.63705454,112.8917,04/27.0/2023,2000,g 12.6,4.0
# From MPEC 2023-A50
69P/Taylor,e,22.0487,104.8050,343.3979,3.884027,0.1287599,0.41399139,193.1636,04/27.0/2023,2000,g  9.5,12.0
# From MPEC 2023-G31
70P/Kojima,e,6.5983,119.2529,1.7924,3.677335,0.1397669,0.45398689,75.4611,04/27.0/2023,2000,g 11.0,6.0
# From MPEC 2023-HD1
71P/Clark,e,9.4381,59.3931,209.0593,3.138308,0.1772804,0.49373616,16.7032,04/27.0/2023,2000,g 13.1,4.0
# From MPC 89011
72P/Denning-Fujikawa,e,10.9487,26.7012,346.7341,4.307026,0.1102650,0.81865987,354.4998,04/27.0/2023,2000,g 17.5,10.0
# From MPEC 2023-G31
73P/Schwassmann-Wachmann,e,11.2328,69.5835,199.5115,3.093772,0.1811222,0.68564357,44.2226,04/27.0/2023,2000,g 11.5,6.0
# From MPC106348
73P-T/Schwassmann-Wachmann,e,11.2347,69.5864,199.4922,3.095257,0.1809919,0.68583715,43.9347,04/27.0/2023,2000,g 11.5,6.0
# From MPEC 2022-P18
73P-U/Schwassmann-Wachmann,e,11.0741,70.6526,199.8910,2.877123,0.2019605,0.66635727,49.4953,04/27.0/2023,2000,g 19.0,4.0
# From MPEC 2022-X67
73P-V/Schwassmann-Wachmann,e,11.2488,69.4616,199.3885,3.147205,0.1765292,0.69055820,43.2429,04/27.0/2023,2000,g 19.0,4.0
# From MPEC 2022-R15
73P-W/Schwassmann-Wachmann,e,11.6087,67.2786,198.7772,4.597479,0.0999826,0.78243835,24.4434,04/27.0/2023,2000,g 18.2,4.0
# From MPEC 2023-A50
73P-X/Schwassmann-Wachmann,e,11.2645,69.4549,199.4066,3.126455,0.1782895,0.68850717,43.6147,04/27.0/2023,2000,g 17.5,4.0
# From MPEC 2022-R15
73P-Y/Schwassmann-Wachmann,e,11.2030,69.7413,199.4839,3.035523,0.1863604,0.68024872,45.7820,04/27.0/2023,2000,g 17.4,4.0
# From MPEC 2022-P18
73P-BU/Schwassmann-Wachmann,e,11.0741,70.6526,199.8910,2.877123,0.2019605,0.66635727,49.4953,04/27.0/2023,2000,g 19.0,4.0
# From MPEC 2022-X67
73P-BV/Schwassmann-Wachmann,e,11.2488,69.4616,199.3885,3.147205,0.1765292,0.69055820,43.2429,04/27.0/2023,2000,g 19.0,4.0
# From MPEC 2022-R15
73P-BW/Schwassmann-Wachmann,e,11.6087,67.2786,198.7772,4.597479,0.0999826,0.78243835,24.4434,04/27.0/2023,2000,g 18.2,4.0
# From MPEC 2023-A50
73P-BX/Schwassmann-Wachmann,e,11.2645,69.4549,199.4066,3.126455,0.1782895,0.68850717,43.6147,04/27.0/2023,2000,g 17.5,4.0
# From MPEC 2022-R15
73P-BY/Schwassmann-Wachmann,e,11.2030,69.7413,199.4839,3.035523,0.1863604,0.68024872,45.7820,04/27.0/2023,2000,g 17.4,4.0
# From MPEC 2023-A50
74P/Smirnova-Chernykh,e,6.4151,54.1322,139.8349,4.681272,0.0973102,0.07218581,180.6555,04/27.0/2023,2000,g  5.0,6.0
# From MPEC 2022-K19
76P/West-Kohoutek-Ikemura,e,30.4862,84.1046,359.9364,3.470300,0.1524592,0.53885188,194.9080,04/27.0/2023,2000,g  8.0,12.0
# From MPEC 2023-HD1
77P/Longmore,e,24.3187,14.7679,196.7292,3.623902,0.1428695,0.35186801,3.4126,04/27.0/2023,2000,g 12.2,4.0
# From MPEC 2021-O56
78P/Gehrels,e,6.2573,210.5192,192.6550,3.736703,0.1364493,0.46298301,202.4257,04/27.0/2023,2000,g  5.5,8.0
# From MPC 94675
79P/du Toit-Hartley,e,3.1487,280.5196,281.7881,2.943809,0.1951370,0.61918419,329.4879,04/27.0/2023,2000,g 16.0,4.0
# From MPEC 2023-HD1
80P/Peters-Hartley,e,29.9235,259.7960,339.2409,4.023234,0.1221353,0.59849896,16.9960,04/27.0/2023,2000,g 13.8,4.0
# From MPEC 2023-HD1
81P/Wild,e,3.2364,136.0979,41.6228,3.454397,0.1535132,0.53728378,20.3236,04/27.0/2023,2000,g 11.5,4.0
# From MPC133426
82P/Gehrels,e,1.1292,239.2462,226.4203,4.133014,0.1173016,0.12212673,207.5353,04/27.0/2023,2000,g 15.0,4.0
# From MPEC 2020-FB5
84P/Giclas,e,7.5502,108.1296,281.6520,3.549976,0.1473554,0.51608290,155.6886,04/27.0/2023,2000,g  9.5,8.0
# From MPEC 2022-YB4
86P/Wild,e,15.4752,72.3040,179.6498,3.606172,0.1439244,0.37249090,63.7401,04/27.0/2023,2000,g 11.0,6.0
# From MPEC 2020-SI8
87P/Bus,e,4.7189,184.4761,46.3087,3.960804,0.1250342,0.33006208,125.2977,04/27.0/2023,2000,g  7.2,10.0
# From MPEC 2022-ED3
88P/Howell,e,4.3820,56.6687,235.9377,3.106390,0.1800197,0.56355056,169.7477,04/27.0/2023,2000,g 11.0,6.0
# From MPEC 2023-HD1
89P/Russell,e,12.0719,41.3468,250.3953,3.753352,0.1355424,0.40806224,314.6520,04/27.0/2023,2000,g 15.3,4.0
# From MPEC 2022-K19
90P/Gehrels,e,9.6506,13.2044,29.0775,6.051319,0.0662108,0.51107977,141.3535,04/27.0/2023,2000,g  8.5,6.0
# From MPEC 2021-S45
91P/Russell,e,14.3603,245.9257,356.7559,3.900117,0.1279640,0.33557638,114.5498,04/27.0/2023,2000,g  7.5,6.0
# From MPEC 2014-J58
92P/Sanguin,e,19.5066,181.3616,163.8132,5.342930,0.0798059,0.66087769,237.1713,04/27.0/2023,2000,g 12.0,6.0
# From NK 2707
93P/Lovas,e,12.2034,339.6182,74.8688,4.379210,0.1075500,0.61372748,241.4936,04/27.0/2023,2000,g  9.0,4.0
# From MPEC 2023-HD1
94P/Russell,e,6.1876,70.8553,92.4171,3.509895,0.1498866,0.36548860,356.3916,04/27.0/2023,2000,g 14.1,4.0
# From MPC 75717
95P/Chiron,e,6.9178,209.3063,339.4149,13.71280,0.0194095,0.37628010,194.1330,04/27.0/2023,2000,g  6.5,2.0
# From MPEC 2023-HD1
96P/Machholz,e,57.5090,93.9506,14.7444,3.028424,0.1870162,0.96156194,16.0678,04/27.0/2023,2000,g 12.5,4.0
# From MPEC 2022-C56
97P/Metcalf-Brewington,e,17.9518,184.0776,230.0284,4.763070,0.0948142,0.46024304,41.2675,04/27.0/2023,2000,g  5.5,6.0
# From MPEC 2021-W31
98P/Takamizawa,e,10.5625,114.6710,157.7816,3.792584,0.1334447,0.56222749,112.4348,04/27.0/2023,2000,g  9.0,8.0
# From MPEC 2023-HD1
99P/Kowal,e,4.3398,28.1010,174.8096,6.100871,0.0654058,0.22871621,24.8893,04/27.0/2023,2000,g 11.2,4.0
# From MPEC 2022-QD9
100P/Hartley,e,25.5668,37.6875,181.9587,3.430896,0.1550932,0.41193242,40.1829,04/27.0/2023,2000,g  9.0,8.0
# From MPEC 2022-K19
